{"type": "FeatureCollection", "features": [ {"type": "Feature", "properties": {"norad_id": 67080, "name": "STARLINK-36158", "group": "last-30-days", "lat": 31.255377079257272, "lon": 26.05418479922135, "alt_km": 311.3686890885929, "timestamp": "2025-12-23T16:57:11.064872+00:00", "meta": {"OBJECT_NAME": "STARLINK-36158", "OBJECT_ID": "2025-298F", "EPOCH": "2025-12-23T06:00:00.999648", "MEAN_MOTION": 15.88247121, "ECCENTRICITY": 0.00042111, "INCLINATION": 69.9963, "RA_OF_ASC_NODE": 220.1448, "ARG_OF_PERICENTER": 273.4584, "MEAN_ANOMALY": 145.8769, "EPHEMERIS_TYPE": 0, "CLASSIFICATION_TYPE": "U", "NORAD_CAT_ID": 67080, "ELEMENT_SET_NO": 999, "REV_AT_EPOCH": 260, "BSTAR": -0.0073496307, "MEAN_MOTION_DOT": -0.01756099, "MEAN_MOTION_DDOT": 0}, "tle": {"line1": "1 67080U 25298F   25357.25001157 -.01756099  00000+0 -73496-2 0  9999", "line2": "2 67080  69.9963 220.1448 0004211 273.4584 145.8769 15.88247121  2604"}}, "geometry": {"type": "Point", "coordinates": [26.05418479922135, 31.255377079257272]}}, {"type": "Feature", "properties": {"norad_id": 67081, "name": "STARLINK-35864", "group": "last-30-days", "lat": 29.441355878841904, "lon": 26.96032013008417, "alt_km": 311.72039445803966, "timestamp": "2025-12-23T16:57:11.064882+00:00", "meta": {"OBJECT_NAME": "STARLINK-35864", "OBJECT_ID": "2025-298G", "EPOCH": "2025-12-23T06:00:00.999648", "MEAN_MOTION": 15.88250015, "ECCENTRICITY": 0.00040472, "INCLINATION": 69.9965, "RA_OF_ASC_NODE": 220.1423, "ARG_OF_PERICENTER": 278.5166, "MEAN_ANOMALY": 142.7868, "EPHEMERIS_TYPE": 0, "CLASSIFICATION_TYPE": "U", "NORAD_CAT_ID": 67081, "ELEMENT_SET_NO": 999, "REV_AT_EPOCH": 266, "BSTAR": -0.0073609494, "MEAN_MOTION_DOT": -0.0175842, "MEAN_MOTION_DDOT": 0}, "tle": {"line1": "1 67081U 25298G   25357.25001157 -.01758420  00000+0 -73609-2 0  9996", "line2": "2 67081  69.9965 220.1423 0004047 278.5166 142.7868 15.88250015  2667"}}, "geometry": {"type": "Point", "coordinates": [26.96032013008417, 29.441355878841904]}}, {"type": "Feature", "properties": {"norad_id": 67082, "name": "STARLINK-36035", "group": "last-30-days", "lat": 27.513394408443887, "lon": 27.88536145207435, "alt_km": 311.82970996672884, "timestamp": "2025-12-23T16:57:11.064892+00:00", "meta": {"OBJECT_NAME": "STARLINK-36035", "OBJECT_ID": "2025-298H", "EPOCH": "2025-12-23T06:00:00.999648", "MEAN_MOTION": 15.882393, "ECCENTRICITY": 0.00041145, "INCLINATION": 69.9965, "RA_OF_ASC_NODE": 220.1398, "ARG_OF_PERICENTER": 273.6984, "MEAN_ANOMALY": 149.7178, "EPHEMERIS_TYPE": 0, "CLASSIFICATION_TYPE": "U", "NORAD_CAT_ID": 67082, "ELEMENT_SET_NO": 999, "REV_AT_EPOCH": 266, "BSTAR": -0.0073669437, "MEAN_MOTION_DOT": -0.01758933, "MEAN_MOTION_DDOT": 0}, "tle": {"line1": "1 67082U 25298H   25357.25001157 -.01758933  00000+0 -73669-2 0  9992", "line2": "2 67082  69.9965 220.1398 0004114 273.6984 149.7178 15.88239300  2663"}}, "geometry": {"type": "Point", "coordinates": [27.88536145207435, 27.513394408443887]}}, {"type": "Feature", "properties": {"norad_id": 67083, "name": "STARLINK-36170", "group": "last-30-days", "lat": 25.53275913282786, "lon": 28.79946684035263, "alt_km": 312.0953348227913, "timestamp": "2025-12-23T16:57:11.064904+00:00", "meta": {"OBJECT_NAME": "STARLINK-36170", "OBJECT_ID": "2025-298J", "EPOCH": "2025-12-23T06:00:00.999648", "MEAN_MOTION": 15.88234541, "ECCENTRICITY": 0.00040816, "INCLINATION": 69.9964, "RA_OF_ASC_NODE": 220.1372, "ARG_OF_PERICENTER": 273.8982, "MEAN_ANOMALY": 151.672, "EPHEMERIS_TYPE": 0, "CLASSIFICATION_TYPE": "U", "NORAD_CAT_ID": 67083, "ELEMENT_SET_NO": 999, "REV_AT_EPOCH": 266, "BSTAR": -0.0073916431, "MEAN_MOTION_DOT": -0.01763607, "MEAN_MOTION_DDOT": 0}, "tle": {"line1": "1 67083U 25298J   25357.25001157 -.01763607  00000+0 -73916-2 0  9992", "line2": "2 67083  69.9964 220.1372 0004081 273.8982 151.6720 15.88234541  2665"}}, "geometry": {"type": "Point", "coordinates": [28.79946684035263, 25.53275913282786]}}, {"type": "Feature", "properties": {"norad_id": 67084, "name": "STARLINK-36166", "group": "last-30-days", "lat": 23.663547944502337, "lon": 29.63249998427969, "alt_km": 312.35540286562446, "timestamp": "2025-12-23T16:57:11.064914+00:00", "meta": {"OBJECT_NAME": "STARLINK-36166", "OBJECT_ID": "2025-298K", "EPOCH": "2025-12-23T06:00:00.999648", "MEAN_MOTION": 15.88230539, "ECCENTRICITY": 0.00041226, "INCLINATION": 69.9964, "RA_OF_ASC_NODE": 220.1347, "ARG_OF_PERICENTER": 274.1558, "MEAN_ANOMALY": 153.4369, "EPHEMERIS_TYPE": 0, "CLASSIFICATION_TYPE": "U", "NORAD_CAT_ID": 67084, "ELEMENT_SET_NO": 999, "REV_AT_EPOCH": 260, "BSTAR": -0.0073894474, "MEAN_MOTION_DOT": -0.01762908, "MEAN_MOTION_DDOT": 0}, "tle": {"line1": "1 67084U 25298K   25357.25001157 -.01762908  00000+0 -73894-2 0  9991", "line2": "2 67084  69.9964 220.1347 0004122 274.1558 153.4369 15.88230539  2603"}}, "geometry": {"type": "Point", "coordinates": [29.63249998427969, 23.663547944502337]}}, {"type": "Feature", "properties": {"norad_id": 67085, "name": "STARLINK-35794", "group": "last-30-days", "lat": 21.8205757824157, "lon": 30.428479873646566, "alt_km": 312.5877266517946, "timestamp": "2025-12-23T16:57:11.064926+00:00", "meta": {"OBJECT_NAME": "STARLINK-35794", "OBJECT_ID": "2025-298L", "EPOCH": "2025-12-23T06:00:00.999648", "MEAN_MOTION": 15.88225549, "ECCENTRICITY": 0.00042105, "INCLINATION": 69.9966, "RA_OF_ASC_NODE": 220.1317, "ARG_OF_PERICENTER": 273.78, "MEAN_ANOMALY": 155.8018, "EPHEMERIS_TYPE": 0, "CLASSIFICATION_TYPE": "U", "NORAD_CAT_ID": 67085, "ELEMENT_SET_NO": 999, "REV_AT_EPOCH": 266, "BSTAR": -0.0073718158, "MEAN_MOTION_DOT": -0.01759024, "MEAN_MOTION_DDOT": 0}, "tle": {"line1": "1 67085U 25298L   25357.25001157 -.01759024  00000+0 -73718-2 0  9992", "line2": "2 67085  69.9966 220.1317 0004210 273.7800 155.8018 15.88225549  2664"}}, "geometry": {"type": "Point", "coordinates": [30.428479873646566, 21.8205757824157]}}, {"type": "Feature", "properties": {"norad_id": 67086, "name": "STARLINK-35841", "group": "last-30-days", "lat": 19.73136256224952, "lon": 31.305366913076686, "alt_km": 312.83687027113774, "timestamp": "2025-12-23T16:57:11.064936+00:00", "meta": {"OBJECT_NAME": "STARLINK-35841", "OBJECT_ID": "2025-298M", "EPOCH": "2025-12-23T06:00:00.999648", "MEAN_MOTION": 15.88209344, "ECCENTRICITY": 0.00041034, "INCLINATION": 69.9962, "RA_OF_ASC_NODE": 220.1295, "ARG_OF_PERICENTER": 274.1469, "MEAN_ANOMALY": 157.6962, "EPHEMERIS_TYPE": 0, "CLASSIFICATION_TYPE": "U", "NORAD_CAT_ID": 67086, "ELEMENT_SET_NO": 999, "REV_AT_EPOCH": 266, "BSTAR": -0.0073385213, "MEAN_MOTION_DOT": -0.01750781, "MEAN_MOTION_DDOT": 0}, "tle": {"line1": "1 67086U 25298M   25357.25001157 -.01750781  00000+0 -73385-2 0  9994", "line2": "2 67086  69.9962 220.1295 0004103 274.1469 157.6962 15.88209344  2666"}}, "geometry": {"type": "Point", "coordinates": [31.305366913076686, 19.73136256224952]}}, {"type": "Feature", "properties": {"norad_id": 67087, "name": "STARLINK-35842", "group": "last-30-days", "lat": 18.063517709998596, "lon": 31.987343699689184, "alt_km": 313.0442266586688, "timestamp": "2025-12-23T16:57:11.064946+00:00", "meta": {"OBJECT_NAME": "STARLINK-35842", "OBJECT_ID": "2025-298N", "EPOCH": "2025-12-23T06:00:00.999648", "MEAN_MOTION": 15.88212119, "ECCENTRICITY": 0.00041001, "INCLINATION": 69.9963, "RA_OF_ASC_NODE": 220.1272, "ARG_OF_PERICENTER": 274.6621, "MEAN_ANOMALY": 158.9644, "EPHEMERIS_TYPE": 0, "CLASSIFICATION_TYPE": "U", "NORAD_CAT_ID": 67087, "ELEMENT_SET_NO": 999, "REV_AT_EPOCH": 266, "BSTAR": -0.0073381327, "MEAN_MOTION_DOT": -0.01750907, "MEAN_MOTION_DDOT": 0}, "tle": {"line1": "1 67087U 25298N   25357.25001157 -.01750907  00000+0 -73381-2 0  9991", "line2": "2 67087  69.9963 220.1272 0004100 274.6621 158.9644 15.88212119  2660"}}, "geometry": {"type": "Point", "coordinates": [31.987343699689184, 18.063517709998596]}}, {"type": "Feature", "properties": {"norad_id": 67088, "name": "STARLINK-35882", "group": "last-30-days", "lat": 16.02635655789993, "lon": 32.802061059788855, "alt_km": 313.1708799631451, "timestamp": "2025-12-23T16:57:11.064958+00:00", "meta": {"OBJECT_NAME": "STARLINK-35882", "OBJECT_ID": "2025-298P", "EPOCH": "2025-12-23T06:00:00.999648", "MEAN_MOTION": 15.88199045, "ECCENTRICITY": 0.00037515, "INCLINATION": 69.9964, "RA_OF_ASC_NODE": 220.1247, "ARG_OF_PERICENTER": 273.6256, "MEAN_ANOMALY": 162.1963, "EPHEMERIS_TYPE": 0, "CLASSIFICATION_TYPE": "U", "NORAD_CAT_ID": 67088, "ELEMENT_SET_NO": 999, "REV_AT_EPOCH": 266, "BSTAR": -0.0073276916, "MEAN_MOTION_DOT": -0.0174728, "MEAN_MOTION_DDOT": 0}, "tle": {"line1": "1 67088U 25298P   25357.25001157 -.01747280  00000+0 -73277-2 0  9996", "line2": "2 67088  69.9964 220.1247 0003751 273.6256 162.1963 15.88199045  2661"}}, "geometry": {"type": "Point", "coordinates": [32.802061059788855, 16.02635655789993]}}, {"type": "Feature", "properties": {"norad_id": 67089, "name": "STARLINK-35763", "group": "last-30-days", "lat": 13.96087547603366, "lon": 33.60964171520712, "alt_km": 313.55199991918016, "timestamp": "2025-12-23T16:57:11.064968+00:00", "meta": {"OBJECT_NAME": "STARLINK-35763", "OBJECT_ID": "2025-298Q", "EPOCH": "2025-12-23T06:00:00.999648", "MEAN_MOTION": 15.88192194, "ECCENTRICITY": 0.00039243, "INCLINATION": 69.9962, "RA_OF_ASC_NODE": 220.1219, "ARG_OF_PERICENTER": 275.5746, "MEAN_ANOMALY": 162.4683, "EPHEMERIS_TYPE": 0, "CLASSIFICATION_TYPE": "U", "NORAD_CAT_ID": 67089, "ELEMENT_SET_NO": 999, "REV_AT_EPOCH": 266, "BSTAR": -0.0073331507, "MEAN_MOTION_DOT": -0.01748122, "MEAN_MOTION_DDOT": 0}, "tle": {"line1": "1 67089U 25298Q   25357.25001157 -.01748122  00000+0 -73332-2 0  9995", "line2": "2 67089  69.9962 220.1219 0003924 275.5746 162.4683 15.88192194  2666"}}, "geometry": {"type": "Point", "coordinates": [33.60964171520712, 13.96087547603366]}}]}